[
    {
        "Altitude(m)": 554884.406274986,
        "Argument of Periapsis(deg)": 0.006622991110713501,
        "Eccentricity": 0.0,
        "Inclination(deg)": 53.0,
        "Latitude(deg)": 28.941022423036806,
        "Longitude(deg)": 124.74519314423178,
        "Mean Anomaly(deg)": 142.81889286757757,
        "RAAN(deg)": 69.99014336852801,
        "Satellite Name": "Starlink Shell 1 316",
        "Satellite Number": 316,
        "Semi-Major Axis(m)": 6931778.249405717,
        "Time(s)": 190
    },
    {
        "Altitude(m)": 554814.4705356365,
        "Argument of Periapsis(deg)": 0.0069715695902247375,
        "Eccentricity": 0.0,
        "Inclination(deg)": 53.0,
        "Latitude(deg)": 28.48237988520804,
        "Longitude(deg)": 125.19293921076938,
        "Mean Anomaly(deg)": 143.4457240711343,
        "RAAN(deg)": 69.98962459845053,
        "Satellite Name": "Starlink Shell 1 316",
        "Satellite Number": 316,
        "Semi-Major Axis(m)": 6931778.249405717,
        "Time(s)": 200
    },
    {
        "Altitude(m)": 554745.7725322995,
        "Argument of Periapsis(deg)": 0.007320148069735974,
        "Eccentricity": 0.0,
        "Inclination(deg)": 53.0,
        "Latitude(deg)": 28.021963057065527,
        "Longitude(deg)": 125.63647336185187,
        "Mean Anomaly(deg)": 144.07255527469104,
        "RAAN(deg)": 69.98910582837307,
        "Satellite Name": "Starlink Shell 1 316",
        "Satellite Number": 316,
        "Semi-Major Axis(m)": 6931778.249405717,
        "Time(s)": 210
    },
    {
        "Altitude(m)": 554678.3644520646,
        "Argument of Periapsis(deg)": 0.007668726549247212,
        "Eccentricity": 0.0,
        "Inclination(deg)": 53.0,
        "Latitude(deg)": 27.559819843859756,
        "Longitude(deg)": 126.07589564711692,
        "Mean Anomaly(deg)": 144.69938647824776,
        "RAAN(deg)": 69.9885870582956,
        "Satellite Name": "Starlink Shell 1 316",
        "Satellite Number": 316,
        "Semi-Major Axis(m)": 6931778.249405717,
        "Time(s)": 220
    },
    {
        "Altitude(m)": 554612.2980205956,
        "Argument of Periapsis(deg)": 0.00801730502875845,
        "Eccentricity": 0.0,
        "Inclination(deg)": 53.0,
        "Latitude(deg)": 27.095997116302982,
        "Longitude(deg)": 126.51130479289932,
        "Mean Anomaly(deg)": 145.32621768180445,
        "RAAN(deg)": 69.98806828821812,
        "Satellite Name": "Starlink Shell 1 316",
        "Satellite Number": 316,
        "Semi-Major Axis(m)": 6931778.249405717,
        "Time(s)": 230
    },
    {
        "Altitude(m)": 554547.6244745689,
        "Argument of Periapsis(deg)": 0.008365883508269684,
        "Eccentricity": 0.0,
        "Inclination(deg)": 53.0,
        "Latitude(deg)": 26.630540740287824,
        "Longitude(deg)": 126.94279870818214,
        "Mean Anomaly(deg)": 145.95304888536114,
        "RAAN(deg)": 69.98754951814065,
        "Satellite Name": "Starlink Shell 1 316",
        "Satellite Number": 316,
        "Semi-Major Axis(m)": 6931778.249405717,
        "Time(s)": 240
    },
    {
        "Altitude(m)": 554484.3945343283,
        "Argument of Periapsis(deg)": 0.008714461987780921,
        "Eccentricity": 0.0,
        "Inclination(deg)": 53.0,
        "Latitude(deg)": 26.163495606123085,
        "Longitude(deg)": 127.37047348033539,
        "Mean Anomaly(deg)": 146.57988008891786,
        "RAAN(deg)": 69.98703074806318,
        "Satellite Name": "Starlink Shell 1 316",
        "Satellite Number": 316,
        "Semi-Major Axis(m)": 6931778.249405717,
        "Time(s)": 250
    },
    {
        "Altitude(m)": 554422.6583767693,
        "Argument of Periapsis(deg)": 0.009063040467292158,
        "Eccentricity": 0.0,
        "Inclination(deg)": 53.0,
        "Latitude(deg)": 25.69490565726859,
        "Longitude(deg)": 127.79442388617046,
        "Mean Anomaly(deg)": 147.2067112924746,
        "RAAN(deg)": 69.9865119779857,
        "Satellite Name": "Starlink Shell 1 316",
        "Satellite Number": 316,
        "Semi-Major Axis(m)": 6931778.249405717,
        "Time(s)": 260
    },
    {
        "Altitude(m)": 554362.4656084114,
        "Argument of Periapsis(deg)": 0.009411618946803396,
        "Eccentricity": 0.0,
        "Inclination(deg)": 53.0,
        "Latitude(deg)": 25.22481391855986,
        "Longitude(deg)": 128.2147439052279,
        "Mean Anomaly(deg)": 147.83354249603133,
        "RAAN(deg)": 69.98599320790824,
        "Satellite Name": "Starlink Shell 1 316",
        "Satellite Number": 316,
        "Semi-Major Axis(m)": 6931778.249405717,
        "Time(s)": 270
    },
    {
        "Altitude(m)": 554303.8652387579,
        "Argument of Periapsis(deg)": 0.009760197426314633,
        "Eccentricity": 0.0,
        "Inclination(deg)": 53.0,
        "Latitude(deg)": 24.75326252391503,
        "Longitude(deg)": 128.6315257222297,
        "Mean Anomaly(deg)": 148.46037369958805,
        "RAAN(deg)": 69.98547443783076,
        "Satellite Name": "Starlink Shell 1 316",
        "Satellite Number": 316,
        "Semi-Major Axis(m)": 6931778.249405717,
        "Time(s)": 280
    },
    {
        "Altitude(m)": 554246.9056538834,
        "Argument of Periapsis(deg)": 0.01010877590582587,
        "Eccentricity": 0.0,
        "Inclination(deg)": 53.0,
        "Latitude(deg)": 24.28029274351554,
        "Longitude(deg)": 129.0448602442646,
        "Mean Anomaly(deg)": 149.08720490314474,
        "RAAN(deg)": 69.98495566775328,
        "Satellite Name": "Starlink Shell 1 316",
        "Satellite Number": 316,
        "Semi-Major Axis(m)": 6931778.249405717,
        "Time(s)": 290
    },
    {
        "Altitude(m)": 554191.6345903025,
        "Argument of Periapsis(deg)": 0.010457354385337106,
        "Eccentricity": 0.0,
        "Inclination(deg)": 53.0,
        "Latitude(deg)": 23.805945010456718,
        "Longitude(deg)": 129.45483761966392,
        "Mean Anomaly(deg)": 149.71403610670146,
        "RAAN(deg)": 69.98443689767582,
        "Satellite Name": "Starlink Shell 1 316",
        "Satellite Number": 316,
        "Semi-Major Axis(m)": 6931778.249405717,
        "Time(s)": 300
    },
    {
        "Altitude(m)": 554138.0991091339,
        "Argument of Periapsis(deg)": 0.010805932864848343,
        "Eccentricity": 0.0,
        "Inclination(deg)": 53.0,
        "Latitude(deg)": 23.330258946869414,
        "Longitude(deg)": 129.8615462455344,
        "Mean Anomaly(deg)": 150.34086731025818,
        "RAAN(deg)": 69.98391812759834,
        "Satellite Name": "Starlink Shell 1 316",
        "Satellite Number": 316,
        "Semi-Major Axis(m)": 6931778.249405717,
        "Time(s)": 310
    },
    {
        "Altitude(m)": 554086.3455705331,
        "Argument of Periapsis(deg)": 0.01115451134435958,
        "Eccentricity": 0.0,
        "Inclination(deg)": 53.0,
        "Latitude(deg)": 22.8532733895084,
        "Longitude(deg)": 130.26507328955373,
        "Mean Anomaly(deg)": 150.96769851381487,
        "RAAN(deg)": 69.98339935752087,
        "Satellite Name": "Starlink Shell 1 316",
        "Satellite Number": 316,
        "Semi-Major Axis(m)": 6931778.249405717,
        "Time(s)": 320
    },
    {
        "Altitude(m)": 554036.4196084776,
        "Argument of Periapsis(deg)": 0.011503089823870818,
        "Eccentricity": 0.0,
        "Inclination(deg)": 53.0,
        "Latitude(deg)": 22.37502641481029,
        "Longitude(deg)": 130.66550521301625,
        "Mean Anomaly(deg)": 151.59452971737161,
        "RAAN(deg)": 69.98288058744339,
        "Satellite Name": "Starlink Shell 1 316",
        "Satellite Number": 316,
        "Semi-Major Axis(m)": 6931778.249405717,
        "Time(s)": 330
    },
    {
        "Altitude(m)": 553988.3661058546,
        "Argument of Periapsis(deg)": 0.011851668303382053,
        "Eccentricity": 0.0,
        "Inclination(deg)": 53.0,
        "Latitude(deg)": 21.895555363426222,
        "Longitude(deg)": 131.0629267821309,
        "Mean Anomaly(deg)": 152.2213609209283,
        "RAAN(deg)": 69.98236181736593,
        "Satellite Name": "Starlink Shell 1 316",
        "Satellite Number": 316,
        "Semi-Major Axis(m)": 6931778.249405717,
        "Time(s)": 340
    },
    {
        "Altitude(m)": 553942.2291698725,
        "Argument of Periapsis(deg)": 0.012200246782893292,
        "Eccentricity": 0.0,
        "Inclination(deg)": 53.0,
        "Latitude(deg)": 21.414896864229906,
        "Longitude(deg)": 131.45742159320244,
        "Mean Anomaly(deg)": 152.84819212448505,
        "RAAN(deg)": 69.98184304728845,
        "Satellite Name": "Starlink Shell 1 316",
        "Satellite Number": 316,
        "Semi-Major Axis(m)": 6931778.249405717,
        "Time(s)": 350
    },
    {
        "Altitude(m)": 553898.0521078701,
        "Argument of Periapsis(deg)": 0.012548825262404526,
        "Eccentricity": 0.0,
        "Inclination(deg)": 53.0,
        "Latitude(deg)": 20.933086857807687,
        "Longitude(deg)": 131.84907259871449,
        "Mean Anomaly(deg)": 153.47502332804177,
        "RAAN(deg)": 69.98132427721097,
        "Satellite Name": "Starlink Shell 1 316",
        "Satellite Number": 316,
        "Semi-Major Axis(m)": 6931778.249405717,
        "Time(s)": 360
    },
    {
        "Altitude(m)": 553855.8774034438,
        "Argument of Periapsis(deg)": 0.012897403741915765,
        "Eccentricity": 0.0,
        "Inclination(deg)": 53.0,
        "Latitude(deg)": 20.4501606194393,
        "Longitude(deg)": 132.23796112134093,
        "Mean Anomaly(deg)": 154.10185453159846,
        "RAAN(deg)": 69.98080550713351,
        "Satellite Name": "Starlink Shell 1 316",
        "Satellite Number": 316,
        "Semi-Major Axis(m)": 6931778.249405717,
        "Time(s)": 370
    }
]